NORAD_CAT_ID,OBJECT_NAME,OBJECT_TYPE,EPOCH,MEAN_MOTION,ECCENTRICITY,INCLINATION,RA_OF_ASC_NODE,ARG_OF_PERICENTER,MEAN_ANOMALY,BSTAR,MEAN_MOTION_DOT,MEAN_MOTION_DDOT,TLE_LINE0,TLE_LINE1,TLE_LINE2,SEMIMAJOR_AXIS,PERIOD,APOGEE,PERIGEE,DECAYED
52704.0,STARLINK-3999,PAYLOAD,2022-11-19 18:55:59,15.08843405,0.0002758,53.2162,147.627,42.492,317.6285,0.00013788,1.907e-05,0.0,0 STARLINK-3999,1 52704U 22053BA  22323.78887785  .00001907  00000-0  13788-3 0  9997,2 52704  53.2162 147.6270 0002758  42.4920 317.6285 15.08843405 28830,6917.87,95.437,541.643,537.827,0.0
52704.0,STARLINK-3999,PAYLOAD,2022-11-19 22:06:44,15.08852601,0.0002663,53.2162,147.0322,43.4727,316.6475,-0.00016538,-2.921e-05,0.0,0 STARLINK-3999,1 52704U 22053BA  22323.92135119 -.00002921  00000-0 -16538-3 0  9995,2 52704  53.2162 147.0322 0002663  43.4727 316.6475 15.08852601 28853,6917.842,95.437,541.549,537.865,0.0
52704.0,STARLINK-3999,PAYLOAD,2022-11-20 12:25:13,15.08844718,0.0002751,53.2158,144.3557,43.4032,316.7177,0.00023835,3.508e-05,0.0,0 STARLINK-3999,1 52704U 22053BA  22324.51751804  .00003508  00000-0  23835-3 0  9994,2 52704  53.2158 144.3557 0002751  43.4032 316.7177 15.08844718 29373,6917.866,95.437,541.634,537.828,0.0
52704.0,STARLINK-3999,PAYLOAD,2022-11-20 17:11:22,15.08847987,0.0002766,53.2159,143.4637,43.7242,316.3969,0.00026767,3.975e-05,0.0,0 STARLINK-3999,1 52704U 22053BA  22324.71623633  .00003975  00000-0  26767-3 0  9999,2 52704  53.2159 143.4637 0002766  43.7242 316.3969 15.08847987 28976,6917.856,95.437,541.634,537.807,0.0
52704.0,STARLINK-3999,PAYLOAD,2022-11-21 10:40:37,15.08845087,0.000287,53.2151,140.1929,44.8447,315.2777,0.00013927,1.929e-05,0.0,0 STARLINK-3999,1 52704U 22053BA  22325.44487597  .00001929  00000-0  13927-3 0  9998,2 52704  53.2151 140.1929 0002870  44.8447 315.2777 15.08845087 29088,6917.865,95.437,541.715,537.744,0.0
52704.0,STARLINK-3999,PAYLOAD,2022-11-21 12:16:00,15.08841918,0.0002811,53.2153,139.8947,46.1209,314.0015,8.6607e-05,1.09e-05,0.0,0 STARLINK-3999,1 52704U 22053BA  22325.51111733  .00001090  00000-0  86607-4 0  9997,2 52704  53.2153 139.8947 0002811  46.1209 314.0015 15.08841918 29521,6917.875,95.437,541.684,537.795,0.0
52704.0,STARLINK-3999,PAYLOAD,2022-11-21 17:02:10,15.08837452,0.0002768,53.2155,139.0025,46.06100000000001,314.061,-1.5793e-06,-3.14e-06,0.0,0 STARLINK-3999,1 52704U 22053BA  22325.70983895 -.00000314  00000-0 -15793-5 0  9993,2 52704  53.2155 139.0025 0002768  46.0610 314.0610 15.08837452 29123,6917.888000000001,95.438,541.668,537.8380000000002,0.0
52704.0,STARLINK-3999,PAYLOAD,2022-11-21 21:48:19,15.08836724,0.000277,53.2171,138.1109,45.4474,314.6744,1.1532e-05,-1.05e-06,0.0,0 STARLINK-3999,1 52704U 22053BA  22325.90856191 -.00000105  00000-0  11532-4 0  9996,2 52704  53.2171 138.1109 0002770  45.4474 314.6744 15.08836724 29583,6917.89,95.438,541.672,537.839,0.0
52704.0,STARLINK-3999,PAYLOAD,2022-11-22 12:06:47,15.088405800000002,0.0002702,53.2174,135.4345,47.4702,312.6518,-2.667e-06,-3.31e-06,0.0,0 STARLINK-3999,1 52704U 22053BA  22326.50471984 -.00000331  00000-0 -26670-5 0  9998,2 52704  53.2174 135.4345 0002702  47.4702 312.6518 15.08840580 29671,6917.879,95.438,541.613,537.874,0.0
52704.0,STARLINK-3999,PAYLOAD,2022-11-22 18:28:20,15.08842582,0.000273,53.2173,134.2452,47.2273,312.8949,8.793300000000001e-06,-1.49e-06,0.0,0 STARLINK-3999,1 52704U 22053BA  22326.76967762 -.00000149  00000-0  87933-5 0  9995,2 52704  53.2173 134.2452 0002730  47.2273 312.8949 15.08842582 29289,6917.871999999999,95.437,541.626,537.849,0.0
52704.0,STARLINK-3999,PAYLOAD,2022-11-22 20:03:43,15.08841805,0.0002741,53.2173,133.9479,46.8349,313.2872,-5.298899999999999e-07,-2.97e-06,0.0,0 STARLINK-3999,1 52704U 22053BA  22326.83591781 -.00000297  00000-0 -52989-6 0  9996,2 52704  53.2173 133.9479 0002741  46.8349 313.2872 15.08841805 29721,6917.875,95.437,541.636,537.844,0.0
52704.0,STARLINK-3999,PAYLOAD,2022-11-23 10:22:11,15.08839509,0.0002753,53.2175,131.2717,46.8989,313.2233,6.1915e-05,6.97e-06,0.0,0 STARLINK-3999,1 52704U 22053BA  22327.43207768  .00000697  00000-0  61915-4 0  9991,2 52704  53.2175 131.2717 0002753  46.8989 313.2233 15.08839509 29811,6917.882,95.438,541.651,537.842,0.0
52704.0,STARLINK-3999,PAYLOAD,2022-11-23 18:19:07,15.08839913,0.0002768,53.2177,129.785,47.3751,312.7474,0.00011023,1.466e-05,0.0,0 STARLINK-3999,1 52704U 22053BA  22327.76327595  .00001466  00000-0  11023-3 0  9997,2 52704  53.2177 129.7850 0002768  47.3751 312.7474 15.08839913 29867,6917.880999999999,95.438,541.661,537.831,0.0
52704.0,STARLINK-3999,PAYLOAD,2022-11-24 11:48:22,15.08834922,0.0002853,53.2186,126.5144,50.3566,309.7678,1.3531e-06,-2.67e-06,0.0,0 STARLINK-3999,1 52704U 22053BA  22328.49192333 -.00000267  00000-0  13531-5 0  9995,2 52704  53.2186 126.5144 0002853  50.3566 309.7678 15.08834922 29543,6917.896,95.438,541.735,537.7869999999998,0.0
52704.0,STARLINK-3999,PAYLOAD,2022-11-24 18:09:54,15.08834647,0.0002725,53.218,125.3246,48.445,311.6776,-2.8725e-06,-3.34e-06,0.0,0 STARLINK-3999,1 52704U 22053BA  22328.75688358 -.00000334  00000-0 -28725-5 0  9998,2 52704  53.2180 125.3246 0002725  48.4450 311.6776 15.08834647 30014,6917.897,95.438,541.6469999999998,537.877,0.0
52704.0,STARLINK-3999,PAYLOAD,2022-11-25 11:39:08,15.08841032,0.0002663,53.2177,122.0535,48.0055,312.1163,2.8297e-05,1.62e-06,0.0,0 STARLINK-3999,1 52704U 22053BA  22329.48551970  .00000162  00000-0  28297-4 0  9998,2 52704  53.2177 122.0535 0002663  48.0055 312.1163 15.08841032 30127,6917.877,95.437,541.5840000000002,537.9,0.0
52704.0,STARLINK-3999,PAYLOAD,2022-11-25 16:25:18,15.08843353,0.000288,53.2185,121.162,49.3843,310.74,1.4738e-05,-5.4e-07,0.0,0 STARLINK-3999,1 52704U 22053BA  22329.68423941 -.00000054  00000-0  14738-4 0  9992,2 52704  53.2185 121.1620 0002880  49.3843 310.7400 15.08843353 29721,6917.87,95.437,541.727,537.743,0.0
52704.0,STARLINK-3999,PAYLOAD,2022-11-25 18:00:41,15.08837254,0.0002848,53.2183,120.8647,49.7123,310.4118,0.00010087,1.317e-05,0.0,0 STARLINK-3999,1 52704U 22053BA  22329.75048074  .00001317  00000-0  10087-3 0  9994,2 52704  53.2183 120.8647 0002848  49.7123 310.4118 15.08837254 30169,6917.889,95.438,541.724,537.784,0.0
52704.0,STARLINK-3999,PAYLOAD,2022-11-26 09:54:32,15.08844727,0.0002742,53.2175,117.8901,49.4158,310.7072,0.00015865,2.238e-05,0.0,0 STARLINK-3999,1 52704U 22053BA  22330.41287120  .00002238  00000-0  15865-3 0  9998,2 52704  53.2175 117.8901 0002742  49.4158 310.7072 15.08844727 30263,6917.866,95.437,541.628,537.8340000000002,0.0
52704.0,STARLINK-3999,PAYLOAD,2022-11-26 16:16:04,15.08849157,0.0002775,53.2175,116.7007,49.94300000000001,310.1805,0.00018503,2.658e-05,0.0,0 STARLINK-3999,1 52704U 22053BA  22330.67782724  .00002658  00000-0  18503-3 0  9994,2 52704  53.2175 116.7007 0002775  49.9430 310.1805 15.08849157 29877,6917.852,95.437,541.637,537.798,0.0
52704.0,STARLINK-3999,PAYLOAD,2022-11-27 03:23:47,15.08838518,0.0002786,53.2173,114.6192,49.9566,310.1670000000001,5.0126e-05,5.09e-06,0.0,0 STARLINK-3999,1 52704U 22053BA  22331.14151676  .00000509  00000-0  50126-4 0  9994,2 52704  53.2173 114.6192 0002786  49.9566 310.1670 15.08838518 29946,6917.885,95.438,541.677,537.823,0.0
52704.0,STARLINK-3999,PAYLOAD,2022-11-27 09:45:19,15.08844306,0.0002768999999999,53.217,113.4295,49.8156,310.3078,8.443200000000001e-05,1.056e-05,0.0,0 STARLINK-3999,1 52704U 22053BA  22331.40647093  .00001056  00000-0  84432-4 0  9991,2 52704  53.2170 113.4295 0002769  49.8156 310.3078 15.08844306 30419,6917.8669999999975,95.437,541.648,537.817,0.0
52704.0,STARLINK-3999,PAYLOAD,2022-11-27 19:17:38,15.08836937,0.0002765,53.2177,111.6461,45.9413,314.1806,-7.6173e-06,-4.1e-06,0.0,0 STARLINK-3999,1 52704U 22053BA  22331.80391938 -.00000410  00000-0 -76173-5 0  9998,2 52704  53.2177 111.6461 0002765  45.9413 314.1806 15.08836937 30478,6917.89,95.438,541.668,537.842,0.0
52704.0,STARLINK-3999,PAYLOAD,2022-11-28 09:36:06,15.08842201,0.00028,53.2177,108.97,46.6699,313.4527,-3.5849e-05,-8.59e-06,0.0,0 STARLINK-3999,1 52704U 22053BA  22332.40007690 -.00000859  00000-0 -35849-4 0  9995,2 52704  53.2177 108.9700 0002800  46.6699 313.4527 15.08842201 30133,6917.874,95.437,541.6759999999998,537.802,0.0
52704.0,STARLINK-3999,PAYLOAD,2022-11-28 15:57:38,15.08847139,0.0002764,53.2176,107.78,48.5736,311.5493,1.0903e-05,-1.15e-06,0.0,0 STARLINK-3999,1 52704U 22053BA  22332.66503150 -.00000115  00000-0  10903-4 0  9993,2 52704  53.2176 107.7800 0002764  48.5736 311.5493 15.08847139 30600,6917.859,95.437,541.636,537.811,0.0
52704.0,STARLINK-3999,PAYLOAD,2022-11-29 07:51:30,15.08837817,0.0002771,53.218,104.8078,47.0535,313.0689,-4.7275e-05,-1.041e-05,0.0,0 STARLINK-3999,1 52704U 22053BA  22333.32743961 -.00001041  00000-0 -47275-4 0  9995,2 52704  53.2180 104.8078 0002771  47.0535 313.0689 15.08837817 30706,6917.887,95.438,541.669,537.835,0.0
52704.0,STARLINK-3999,PAYLOAD,2022-11-29 12:37:43,15.08708972,0.0001986,53.2179,103.9159,55.0447,305.0731,0.0018315,0.00028876,0.0,0 STARLINK-3999,1 52704U 22053BA  22333.52620140  .00028876  00000-0  18315-2 0  9994,2 52704  53.2179 103.9159 0001986  55.0447 305.0731 15.08708972 30733,6918.281,95.446,541.52,538.7719999999998,0.0
52704.0,STARLINK-3999,PAYLOAD,2022-11-30 09:17:41,15.08836332,0.0002856999999999,53.2187,100.0497,50.8931,309.2315,9.6494e-06,-1.35e-06,0.0,0 STARLINK-3999,1 52704U 22053BA  22334.38728454 -.00000135  00000-0  96494-5 0  9992,2 52704  53.2187 100.0497 0002857  50.8931 309.2315 15.08836332 30864,6917.892,95.438,541.7330000000002,537.78,0.0
52704.0,STARLINK-3999,PAYLOAD,2022-11-30 17:14:36,15.08839056,0.0002758,53.2184,98.5629,52.8529,307.2714,2.6186e-05,1.28e-06,0.0,0 STARLINK-3999,1 52704U 22053BA  22334.71848289  .00000128  00000-0  26186-4 0  9999,2 52704  53.2184  98.5629 0002758  52.8529 307.2714 15.08839056 30489,6917.8830000000025,95.438,541.656,537.84,0.0
